P/2015 TP200 (LINEAR),e,8.7800,7.0150,82.5026,7.269097,0.0502902,0.53548640,95.7783,01/14.0/2022,2000,g 11.0,4.0
# From MPC115881
C/2015 V1 (PANSTARRS),e,139.2273,197.1570,179.6435,2079,0.0000104,0.99794387,0.0000,12/16.5050/2017,2000,g  6.5,4.0
# From MPC112390
C/2015 V2 (Johnson),h,06/11.2920/2017,49.8183,69.9724,164.9865,1.001761,1.647341,2000,5.0,4.0
# From MPC115881
C/2015 VL62 (Lemmon-Yeung-PANSTARRS),h,08/27.9631/2017,165.8212,95.1586,128.9267,1.001606,2.722871,2000,8.0,4.0
# From MPC101098
P/2015 W2 (Catalina),e,11.6077,294.2128,117.4961,7.292470,0.0500486,0.63462674,114.9012,01/14.0/2022,2000,g 13.0,4.0
# From MPEC 2021-N06
P/2015 X1 (PANSTARRS),e,12.1524,161.7595,218.8329,3.635642,0.1421780,0.41927110,326.4614,01/14.0/2022,2000,g 16.0,4.0
# From MPEC 2021-P47
C/2015 XY1 (Lemmon),h,04/26.4565/2018,148.8522,281.6005,196.1665,1.001055,7.922760,2000,5.5,4.0
# From MPC 97498
P/2015 X3 (PANSTARRS),e,24.3975,77.2851,306.7012,5.006794,0.0879761,0.43958586,206.6409,01/14.0/2022,2000,g 15.0,4.0
# From MPC119995
C/2015 X5 (PANSTARRS),h,12/28.1416/2017,124.3108,122.3328,27.5859,1.000349,6.794720,2000,7.5,4.0
# From MPC115881
P/2015 X6 (PANSTARRS),e,4.5645,106.9419,329.8245,2.753286,0.2157382,0.17279280,97.9364,01/14.0/2022,2000,g 16.0,4.0
# From MPEC 2021-P47
C/2016 A1 (PANSTARRS),h,11/21.5930/2017,121.2073,128.1962,10.1522,1.000132,5.318489,2000,6.0,4.0
# From MPC100282
P/2016 A2 (Christensen),e,26.4037,291.6174,141.3517,4.752886,0.0951191,0.27060307,228.8084,01/14.0/2022,2000,g 11.5,4.0
# From MPC115881
P/2016 A3 (PANSTARRS),e,8.5102,187.2385,340.9950,7.885309,0.0445119,0.38629602,76.6730,01/14.0/2022,2000,g 10.0,4.0
# From MPC102098
P/2016 A7 (PANSTARRS),e,16.6071,221.4968,352.5876,5.033830,0.0872682,0.56454799,187.8811,01/14.0/2022,2000,g 16.0,4.0
# From MPC107048
C/2016 B1 (NEOWISE),e,50.4172,232.0603,8.6709,423.7120,0.0001130,0.99240190,0.0000,12/03.8481/2016,2000,g  9.5,4.0
# From MPC109143
P/2016 BA14 (PANSTARRS),e,18.8941,180.5237,351.8975,3.024963,0.1873371,0.66513300,39.4683,01/14.0/2022,2000,g 21.0,4.0
# From MPC110494
C/2016 E1 (PANSTARRS),h,06/04.0720/2017,131.8736,233.1179,47.4641,1.006309,8.175221,2000,6.5,4.0
# From MPEC 2021-P47
P/2016 G1 (PANSTARRS),e,10.9714,204.0226,111.1208,2.582372,0.2375067,0.21100041,70.8033,01/14.0/2022,2000,g 14.0,4.0
# From MPEC 2017-D91
P/2016 J1-A (PANSTARRS),e,14.3287,199.8112,46.9841,3.172192,0.1744475,0.22776403,353.4251,01/14.0/2022,2000,g 16.5,4.0
# From MPEC 2017-A77
P/2016 J1-B (PANSTARRS),e,14.3314,199.8160,46.8751,3.171822,0.1744781,0.22761453,353.5619,01/14.0/2022,2000,g 17.0,4.0
# From MPC119995
C/2016 M1 (PANSTARRS),e,90.9432,92.2341,209.9304,46343,0.0000001,0.99995223,0.0000,08/10.5362/2018,2000,g  5.0,4.0
# From MPEC 2021-N06
C/2016 N4 (MASTER),e,72.6481,353.9905,55.9498,4269,0.0000035,0.99925120,0.0000,09/17.1825/2017,2000,g  8.5,4.0
# From MPEC 2021-P47
C/2016 N6 (PANSTARRS),e,105.8450,298.9669,162.6475,1141,0.0000256,0.99766620,0.0000,07/17.7952/2018,2000,g  7.0,4.0
# From MPC102099
P/2016 P1 (PANSTARRS),e,24.4559,319.5656,270.1386,3.193830,0.1726778,0.28912450,37.5758,01/14.0/2022,2000,g 15.0,4.0
# From MPEC 2021-W31
C/2016 Q2 (PANSTARRS),h,05/12.0937/2021,109.3879,322.2978,84.5424,1.001668,7.081911,2000,6.0,4.0
# From MPC102955
C/2016 Q4 (Kowalski),e,7.2521,271.2961,99.5396,16.98020,0.0140861,0.58245591,20.3598,01/14.0/2022,2000,g  7.0,4.0
# From MPEC 2021-N06
C/2016 R2 (PANSTARRS),e,58.2714,80.5395,33.1193,482.7238,0.0000929,0.99461475,0.0000,05/08.9962/2018,2000,g  7.0,4.0
# From MPC109144
P/2016 R4 (Gibbs),e,10.8773,168.2624,174.0788,5.331977,0.0800519,0.47640685,160.1655,01/14.0/2022,2000,g 12.5,4.0
# From MPC105543
P/2016 S1 (PANSTARRS),e,94.7055,227.5994,273.2765,8.277744,0.0413843,0.71001851,73.0421,01/14.0/2022,2000,g 12.0,4.0
# From MPC105238
C/2016 T1 (Matheny),e,129.8511,56.4100,137.5349,126.3572,0.0006939,0.98175549,0.0000,02/01.7617/2017,2000,g 14.5,4.0
# From MPC107685
C/2016 T2 (Matheny),e,81.4096,339.1958,92.1552,99.50916,0.0009929,0.98091310,0.0000,12/30.0769/2016,2000,g 14.5,4.0
# From MPC110082
C/2016 T3 (PANSTARRS),e,22.6979,271.6930,194.5914,129.4323,0.0006693,0.97958571,0.0000,09/06.5588/2017,2000,g 10.5,4.0
# From MPC103847
C/2016 U1 (NEOWISE),h,01/13.3351/2017,46.1690,61.6794,162.7725,1.000390,0.325121,2000,17.0,4.0
# From MPC106345
C/2016 VZ18 (PANSTARRS),e,24.0063,98.9298,36.3485,157.7956,0.0004972,0.99421606,0.0000,03/04.9242/2017,2000,g 19.5,4.0
# From MPC106345
P/2016 WM48 (Lemmon),e,117.5139,59.9149,36.1069,8.166049,0.0422363,0.78360238,75.4224,01/14.0/2022,2000,g 15.0,4.0
# From MPEC 2021-P47
C/2016 X1 (Lemmon),e,26.4538,256.3779,224.4770,1260,0.0000220,0.99400165,0.0000,04/27.9440/2019,2000,g  6.0,4.0
# From MPC108594
C/2017 A1 (PANSTARRS),e,49.8075,121.0236,1.9505,75.16378,0.0015125,0.96958562,2.5773,01/14.0/2022,2000,g 13.0,4.0
# From MPC108594
C/2017 A3 (Elenin),e,98.5076,97.8604,303.9360,43.35982,0.0034520,0.91141300,6.2447,01/14.0/2022,2000,g  9.5,4.0
# From MPC114598
C/2017 AB5 (PANSTARRS),e,32.4536,42.6139,78.2979,2292,0.0000090,0.99598173,0.0000,02/14.5724/2018,2000,g  5.5,4.0
# From MPEC 2022-A21
C/2017 B3 (LINEAR),h,02/02.2104/2019,54.1614,2.1766,284.8153,1.001004,3.925793,2000,6.0,4.0
# From MPC103847
P/2017 B4 (PANSTARRS),e,20.0584,121.4578,11.0197,4.410520,0.1064068,0.36495152,359.9130,01/05.0/2017,2000,g 14.5,4.0
# From MPC104793
C/2017 C1 (NEOWISE),e,65.7714,357.5978,109.9797,20.54825,0.0105814,0.92727158,19.2708,01/14.0/2022,2000,g 18.0,4.0
# From MPC107685
C/2017 C2 (PANSTARRS),e,118.5850,249.7017,138.5198,95.00696,0.0010643,0.97451455,0.0000,01/21.0403/2017,2000,g 14.0,4.0
# From MPC104793
P/2017 D1 (Fuls),e,20.7596,82.1818,7.9808,4.828993,0.0928794,0.43644281,188.6438,01/14.0/2022,2000,g 14.0,4.0
# From MPC112391
C/2017 D2 (Barros),e,31.2580,330.9485,334.6182,10528,0.0000009,0.99976288,0.0000,07/14.7381/2017,2000,g 11.0,4.0
# From MPC114598
C/2017 D3 (ATLAS),h,04/27.4605/2017,125.5906,186.7119,340.8212,1.002117,4.967015,2000,8.0,4.0
# From MPC110495
P/2017 D4 (PANSTARRS),e,10.5376,264.9380,212.2012,7.555313,0.0474597,0.62847276,92.8935,01/14.0/2022,2000,g 13.0,4.0
# From MPC104794
C/2017 D5 (PANSTARRS),e,131.0252,92.6551,287.6105,113.0629,0.0008198,0.98094488,0.0000,01/09.6989/2017,2000,g 16.0,4.0
# From MPC106346
C/2017 E1 (Borisov),h,04/10.4763/2017,14.5719,142.5670,152.7766,1.003232,0.906211,2000,14.0,4.0
# From MPEC 2021-P47
C/2017 E3 (PANSTARRS),h,06/07.4127/2017,70.6578,220.7857,334.4731,1.006015,5.936859,2000,6.5,4.0
# From MPC105239
C/2017 E4 (Lovejoy),h,04/23.4079/2017,87.9886,222.8215,87.0823,1.001486,0.491680,2000,17.0,4.0
# From MPC111769
C/2017 F1 (Lemmon),h,11/29.0673/2017,146.4605,158.7886,64.7265,1.002245,4.497196,2000,10.5,4.0
# From MPC114598
C/2017 F2 (PANSTARRS),h,11/26.3126/2017,42.5446,38.6923,134.9607,1.002419,6.928652,2000,7.5,4.0
# From MPC104794
P/2017 G1 (PANSTARRS),e,4.7784,249.6450,224.4435,7.280584,0.0501712,0.65312676,104.7664,01/14.0/2022,2000,g 13.5,4.0
# From MPC108595
P/2017 G2 (PANSTARRS),e,47.9515,79.8034,105.4933,8.058102,0.0430879,0.64767469,72.3379,01/14.0/2022,2000,g 13.0,4.0
# From MPEC 2021-P47
C/2017 G3 (PANSTARRS),e,159.0371,279.4593,73.0408,313.1818,0.0001778,0.99175258,0.0000,04/16.3571/2017,2000,g 14.0,4.0
# From MPC115882
C/2017 K1 (PANSTARRS),h,03/17.9603/2018,154.0199,225.7043,4.4353,1.003279,7.287776,2000,7.0,4.0
# From MPEC 2022-A21
C/2017 K2 (PANSTARRS),h,12/19.6931/2022,87.5588,88.2368,236.1934,1.000695,1.797117,2000,1.5,4.0
# From MPEC 2021-N06
P/2017 K3 (Gasparovic),e,4.2730,354.2878,253.4456,5.583803,0.0746980,0.57972260,126.2442,01/14.0/2022,2000,g 14.5,4.0
# From MPC114598
C/2017 K4 (ATLAS),e,16.6736,298.8888,15.3098,28.64862,0.0064276,0.90727436,9.4262,01/14.0/2022,2000,g 10.0,4.0
# From MPEC 2021-P47
C/2017 K5 (PANSTARRS),h,03/27.1885/2020,82.2369,102.3737,172.0469,1.005601,7.682466,2000,5.0,4.0
# From MPC114599
C/2017 K6 (Jacques),e,57.2319,84.9649,303.7686,1148,0.0000253,0.99826150,0.0000,01/03.7872/2018,2000,g 11.0,4.0
# From MPEC 2021-P47
C/2017 M3 (PANSTARRS),e,77.5875,7.0366,110.2850,166.8561,0.0004573,0.97211805,0.0000,04/28.3002/2017,2000,g 10.5,4.0
# From MPEC 2021-Y10
C/2017 M4 (ATLAS),h,01/17.9583/2019,105.6474,65.9192,167.6167,1.001397,3.253533,2000,6.0,4.0
# From MPC118841
C/2017 M5 (TOTAS),h,06/04.4777/2018,15.8688,216.2885,92.8226,1.005453,5.999595,2000,6.5,4.0
# From MPC114599
C/2017 O1 (ASASSN),e,39.9599,25.7280,20.8364,366.7449,0.0001403,0.99593236,0.0000,10/15.4421/2017,2000,g 11.0,4.0
# From MPC114599
P/2017 P1 (PANSTARRS),e,7.6921,221.3836,122.5191,7.905596,0.0443407,0.31102650,57.7597,01/14.0/2022,2000,g 10.0,4.0
# From MPC114599
C/2017 P2 (PANSTARRS),e,50.0484,165.4579,132.4626,2487,0.0000079,0.99900643,0.0000,12/06.3365/2017,2000,g 10.0,4.0
# From MPC114599
P/2017 R1 (PANSTARRS),e,2.5745,143.6168,178.6981,4.135047,0.1172151,0.19565499,203.7774,01/14.0/2022,2000,g 13.5,4.0
# From MPC108595
C/2017 S2 (PANSTARRS),e,12.6716,62.3512,306.0592,20.61329,0.0105313,0.82473810,16.8244,01/14.0/2022,2000,g 13.0,4.0
# From MPC114599
C/2017 S3 (PANSTARRS),h,08/16.3336/2018,99.2030,171.3026,255.8076,1.000067,0.206707,2000,11.0,4.0
# From MPC109591
C/2017 S6 (Catalina),h,02/26.1660/2018,152.8669,131.0637,134.9143,1.000782,1.548541,2000,12.5,4.0
# From MPC114599
C/2017 S7 (Lemmon),e,124.2248,262.7459,187.5240,8307,0.0000013,0.99908438,0.0000,05/24.0440/2017,2000,g  7.0,4.0
# From MPC114599
P/2017 S8 (PANSTARRS),e,29.8527,191.5279,254.7848,2.780639,0.2125628,0.39122124,307.8704,01/14.0/2022,2000,g 16.0,4.0
# From MPC107050
P/2017 S9 (PANSTARRS),e,14.1440,146.2228,237.6856,3.153879,0.1759692,0.30541153,287.9285,01/14.0/2022,2000,g 17.0,4.0
# From MPC114600
C/2017 T1 (Heinze),e,96.8750,102.4316,96.9961,12010,0.0000007,0.99995130,0.0000,02/20.8224/2018,2000,g 14.5,4.0
# From MPEC 2021-Y10
C/2017 T2 (PANSTARRS),e,57.2345,64.3830,92.9822,2023,0.0000108,0.99920145,0.0000,05/04.8431/2020,2000,g  5.0,4.0
# From MPC114600
C/2017 T3 (ATLAS),e,88.1615,230.1551,246.8227,1180,0.0000243,0.99930128,0.0000,07/18.8854/2018,2000,g 10.0,4.0
